{"spkid": "50892730", "covariance": {"data": [["1.927962949685354E-14", "-1.188048966538568E-14", "5.340410853821339E-12", "-4.919754074960294E-13", "5.671236535843828E-12", "2.821231965520073E-12"], ["-1.188048966538568E-14", "9.049522914177983E-15", "8.136891633600399E-12", "1.145460016111673E-13", "6.372971518902172E-12", "-1.505626676461851E-12"], ["5.340410853821339E-12", "8.136891633600399E-12", "1.565708738186457E-7", "-2.178239246446126E-9", "1.33089791832033E-7", "1.769597237838758E-9"], ["-4.919754074960294E-13", "1.145460016111673E-13", "-2.178239246446126E-9", "1.454151563826136E-10", "-1.984025892406637E-9", "-1.145483459428421E-10"], ["5.671236535843828E-12", "6.372971518902172E-12", "1.33089791832033E-7", "-1.984025892406637E-9", "1.133394870668493E-7", "1.714588653412721E-9"], ["2.821231965520073E-12", "-1.505626676461851E-12", "1.769597237838758E-9", "-1.145483459428421E-10", "1.714588653412721E-9", "6.417774081790809E-10"]], "elements": [{"label": "e", "title": "eccentricity", "value": ".06927662138276328", "units": null, "sigma": 1.38851105493811e-07, "name": "e"}, {"label": "q", "sigma": 9.51289804117441e-08, "name": "q", "units": "au", "value": ".9623838766355888", "title": "perihelion distance"}, {"label": "tp", "units": "TDB", "value": "2458612.442222439445", "title": "time of perihelion passage", "sigma": 0.000395690376201704, "name": "tp"}, {"label": "node", "name": "om", "sigma": 1.20588206878871e-05, "title": "longitude of the ascending node", "value": "53.33334388300328", "units": "deg"}, {"value": "174.9493271188728", "title": "argument of perihelion", "units": "deg", "name": "w", "sigma": 0.000336659304144189, "label": "peri"}, {"label": "i", "title": "inclination", "value": "17.13338590801984", "units": "deg", "name": "i", "sigma": 2.53333260386212e-05}], "labels": ["e", "q", "tp", "node", "peri", "i"], "epoch": "2458717.5"}, "elements": [{"label": "e", "units": null, "title": "eccentricity", "value": ".06918382949404507", "sigma": "1.3881E-7", "name": "e"}, {"units": "au", "value": "1.034372463546169", "title": "semi-major axis", "name": "a", "sigma": "7.4177E-8", "label": "a"}, {"sigma": "9.6397E-8", "name": "q", "units": "au", "value": ".9628106153948552", "title": "perihelion distance", "label": "q"}, {"label": "i", "units": "deg", "value": "17.13351439236828", "title": "inclination; angle with respect to x-y ecliptic plane", "sigma": "2.5332E-5", "name": "i"}, {"label": "node", "name": "om", "sigma": "1.199E-5", "value": "53.29364370523841", "title": "longitude of the ascending node", "units": "deg"}, {"label": "peri", "name": "w", "sigma": ".00033705", "units": "deg", "title": "argument of perihelion", "value": "174.9501453495848"}, {"label": "M", "units": "deg", "value": "264.869988239368", "title": "mean anomaly", "sigma": ".00054824", "name": "ma"}, {"units": "TDB", "value": "2461302.038069544769", "title": "time of perihelion passage", "name": "tp", "sigma": ".00059396", "label": "tp"}, {"label": "period", "units": "d", "value": "384.2499791558325", "title": "sidereal orbital period", "name": "per", "sigma": "4.1333E-5"}, {"units": "deg/d", "value": ".9368900963661525", "title": "mean motion", "sigma": "1.0078E-7", "name": "n", "label": "n"}, {"label": "Q", "name": "ad", "sigma": "7.9309E-8", "title": "aphelion distance", "value": "1.105934311697482", "units": "au"}], "epoch": "2461200.5"}